[{"OBJECT_NAME":"STARLINK-32233","OBJECT_ID":"2024-144K","EPOCH":"2026-03-09T15:33:47.498688","MEAN_MOTION":15.30199541,"ECCENTRICITY":9.33e-5,"INCLINATION":53.1585,"RA_OF_ASC_NODE":217.2608,"ARG_OF_PERICENTER":114.1263,"MEAN_ANOMALY":245.9835,"EPHEMERIS_TYPE":0,"CLASSIFICATION_TYPE":"U","NORAD_CAT_ID":60434,"ELEMENT_SET_NO":999,"REV_AT_EPOCH":8930,"BSTAR":-9.16e-5,"MEAN_MOTION_DOT":-3.071e-5,"MEAN_MOTION_DDOT":0},{"OBJECT_NAME":"SCS-01 H","OBJECT_ID":"2025-100H","EPOCH":"2026-03-09T23:19:05.376864","MEAN_MOTION":15.31767757,"ECCENTRICITY":0.00071581,"INCLINATION":97.3749,"RA_OF_ASC_NODE":145.8085,"ARG_OF_PERICENTER":277.8492,"MEAN_ANOMALY":82.1937,"EPHEMERIS_TYPE":0,"CLASSIFICATION_TYPE":"U","NORAD_CAT_ID":63989,"ELEMENT_SET_NO":999,"REV_AT_EPOCH":4566,"BSTAR":0.0011436254,"MEAN_MOTION_DOT":0.00035149,"MEAN_MOTION_DDOT":0}]
